{
    "links": {
        "self": "http://www.neowsapp.com/rest/v1/neo/3767242?api_key=iIulBulltgU6a56xZRHN4H3l9WmuAYTsLGpBGhQ2"
    },
    "id": "3767242",
    "neo_reference_id": "3767242",
    "name": "(2017 BN31)",
    "designation": "2017 BN31",
    "nasa_jpl_url": "http://ssd.jpl.nasa.gov/sbdb.cgi?sstr=3767242",
    "absolute_magnitude_h": 25.2,
    "estimated_diameter": {
        "kilometers": {
            "estimated_diameter_min": 0.0242412481,
            "estimated_diameter_max": 0.0542050786
        },
        "meters": {
            "estimated_diameter_min": 24.2412481101,
            "estimated_diameter_max": 54.2050786336
        },
        "miles": {
            "estimated_diameter_min": 0.0150628086,
            "estimated_diameter_max": 0.0336814639
        },
        "feet": {
            "estimated_diameter_min": 79.5316564495,
            "estimated_diameter_max": 177.8381901842
        }
    },
    "is_potentially_hazardous_asteroid": false,
    "close_approach_data": [
        {
            "close_approach_date": "2013-12-23",
            "close_approach_date_full": "2013-Dec-23 13:48",
            "epoch_date_close_approach": 1387806480000,
            "relative_velocity": {
                "kilometers_per_second": "14.9958792557",
                "kilometers_per_hour": "53985.1653205769",
                "miles_per_hour": "33544.2823071107"
            },
            "miss_distance": {
                "astronomical": "0.4262560605",
                "lunar": "165.8136075345",
                "kilometers": "63766998.725391135",
                "miles": "39622975.666162263"
            },
            "orbiting_body": "Earth"
        },
        {
            "close_approach_date": "2017-01-21",
            "close_approach_date_full": "2017-Jan-21 02:59",
            "epoch_date_close_approach": 1484967540000,
            "relative_velocity": {
                "kilometers_per_second": "4.7888828046",
                "kilometers_per_hour": "17239.9780965626",
                "miles_per_hour": "10712.2519456114"
            },
            "miss_distance": {
                "astronomical": "0.1129234786",
                "lunar": "43.9272331754",
                "kilometers": "16893111.871550582",
                "miles": "10496892.9695867516"
            },
            "orbiting_body": "Earth"
        },
        {
            "close_approach_date": "2020-02-21",
            "close_approach_date_full": "2020-Feb-21 11:40",
            "epoch_date_close_approach": 1582285200000,
            "relative_velocity": {
                "kilometers_per_second": "12.3515110501",
                "kilometers_per_hour": "44465.4397803352",
                "miles_per_hour": "27629.0950679533"
            },
            "miss_distance": {
                "astronomical": "0.3359890263",
                "lunar": "130.6997312307",
                "kilometers": "50263242.677853981",
                "miles": "31232130.7468716978"
            },
            "orbiting_body": "Earth"
        },
        {
            "close_approach_date": "2124-02-26",
            "close_approach_date_full": "2124-Feb-26 20:31",
            "epoch_date_close_approach": 4864653060000,
            "relative_velocity": {
                "kilometers_per_second": "14.0795597672",
                "kilometers_per_hour": "50686.4151620366",
                "miles_per_hour": "31494.5672433222"
            },
            "miss_distance": {
                "astronomical": "0.4025495993",
                "lunar": "156.5917941277",
                "kilometers": "60220562.624633491",
                "miles": "37419322.4579085358"
            },
            "orbiting_body": "Earth"
        },
        {
            "close_approach_date": "2129-12-31",
            "close_approach_date_full": "2129-Dec-31 00:25",
            "epoch_date_close_approach": 5049044700000,
            "relative_velocity": {
                "kilometers_per_second": "13.3947173499",
                "kilometers_per_hour": "48220.9824595446",
                "miles_per_hour": "29962.643239932"
            },
            "miss_distance": {
                "astronomical": "0.0580197153",
                "lunar": "22.5696692517",
                "kilometers": "8679625.826886411",
                "miles": "5393269.3996020318"
            },
            "orbiting_body": "Mars"
        }
    ],
    "orbital_data": {
        "orbit_id": "4",
        "orbit_determination_date": "2017-04-06 08:20:39",
        "first_observation_date": "2017-01-27",
        "last_observation_date": "2017-02-06",
        "data_arc_in_days": 10,
        "observations_used": 21,
        "orbit_uncertainty": "8",
        "minimum_orbit_intersection": ".107083",
        "jupiter_tisserand_invariant": "3.585",
        "epoch_osculation": "2457781.5",
        "eccentricity": ".4818049340095419",
        "semi_major_axis": "2.105852066333394",
        "inclination": "2.150991877681783",
        "ascending_node_longitude": "135.3158578521852",
        "orbital_period": "1116.195367437761",
        "perihelion_distance": "1.091242150479776",
        "perihelion_argument": "348.0667302159196",
        "aphelion_distance": "3.120461982187013",
        "perihelion_time": "2457775.051967003277",
        "mean_anomaly": "2.07964658028355",
        "mean_motion": ".3225241839395769",
        "equinox": "J2000",
        "orbit_class": {
            "orbit_class_type": "AMO",
            "orbit_class_description": "Near-Earth asteroid orbits similar to that of 1221 Amor",
            "orbit_class_range": "1.017 AU < q (perihelion) < 1.3 AU"
        }
    },
    "is_sentry_object": false
}